FLOCK 4G-25             
1 62646U 25009AP  26188.20794163  .00007445  00000+0  25979-3 0  9991
2 62646  97.4007 270.2023 0001651 182.0874 178.0359 15.29895911 81981
FLOCK 4G-23             
1 62647U 25009AQ  26188.20753633  .00029366  00000+0  88386-3 0  9996
2 62647  97.3923 269.8813 0002780 188.0668 172.0531 15.34314215 81996
FLOCK 4G-34             
1 62650U 25009AT  26188.47280446  .00006721  00000+0  23643-3 0  9991
2 62650  97.3955 269.9610 0001624 182.2338 177.8896 15.29672047 82012
FLOCK 4G-21             
1 62651U 25009AU  26188.47211139  .00026346  00000+0  84029-3 0  9995
2 62651  97.3986 270.9260 0002413 213.2925 146.8165 15.32490105 82061
FLOCK 4G-31             
1 62652U 25009AV  26188.17460507  .00008151  00000+0  28786-3 0  9990
2 62652  97.3961 269.6379 0001173 172.2918 187.8340 15.29474224 81967
FLOCK 4G-4              
1 62659U 25009BC  26187.76783122  .00030960  00000+0  10096-2 0  9999
2 62659  97.3941 269.0166 0003928 218.3344 141.7619 15.31738738139503
FLOCK 4G-6              
1 62660U 25009BD  26188.16587333  .00007183  00000+0  25092-3 0  9996
2 62660  97.3933 269.4788 0002086 236.9861 123.1179 15.29876544139559
FLOCK 4G-2              
1 62661U 25009BE  26187.70353921  .00009055  00000+0  31230-3 0  9991
2 62661  97.4001 269.6493 0002953 237.6071 122.4884 15.30211304139516
FLOCK 4G-5              
1 62663U 25009BG  26187.76706142  .00008353  00000+0  28311-3 0  9992
2 62663  97.4020 270.1030 0002687 212.3270 147.7806 15.30804680 81939
FLOCK 4G-1              
1 62666U 25009BK  26188.21084271  .00007263  00000+0  25208-3 0  9999
2 62666  97.4015 270.1338 0003232 231.2833 128.8119 15.30078890 81976
FLOCK 4G-14             
1 62667U 25009BL  26187.19289623  .00011288  00000+0  39578-3 0  9991
2 62667  97.4017 268.9222 0003303 230.7288 129.3660 15.29610526 81808
FLOCK 4G-10             
1 62670U 25009BP  26188.18560823  .00007702  00000+0  27006-3 0  9998
2 62670  97.3914 269.2176 0003006 249.1867 110.9051 15.29723998139594
FLOCK 4G-36             
1 62675U 25009BU  26187.85291729  .00008686  00000+0  30452-3 0  9993
2 62675  97.4005 269.5012 0003546 234.5813 125.5096 15.29690850 81903
FLOCK 4G-15             
1 62678U 25009BX  26187.72952046  .00008137  00000+0  28467-3 0  9992
2 62678  97.4009 269.5196 0003767 230.7386 129.3520 15.29778680139536
FLOCK 4G-30             
1 62679U 25009BY  26187.69432378  .00035122  00000+0  10833-2 0  9991
2 62679  97.3911 268.9685 0003478 225.6107 134.4851 15.33494913139530
FLOCK 4G-18             
1 62680U 25009BZ  26187.69912028  .00032903  00000+0  10709-2 0  9994
2 62680  97.4003 269.3804 0005281 241.4170 118.6541 15.31781764139523
