{"fetched_at":"2026-07-07T18:29:08.171Z","source":"https://celestrak.org/NORAD/elements/gp.php?GROUP=planet&FORMAT=JSON","constellation":"superdove","records":[{"OBJECT_NAME":"FLOCK 4G-25","OBJECT_ID":"2025-009AP","EPOCH":"2026-07-07T04:59:26.156832","CLASSIFICATION_TYPE":"U","MEAN_MOTION":15.29895911,"ECCENTRICITY":0.0001651,"INCLINATION":97.4007,"RA_OF_ASC_NODE":270.2023,"ARG_OF_PERICENTER":182.0874,"MEAN_ANOMALY":178.0359,"EPHEMERIS_TYPE":0,"NORAD_CAT_ID":62646,"ELEMENT_SET_NO":999,"REV_AT_EPOCH":8198,"BSTAR":0.00025979,"MEAN_MOTION_DOT":0.00007445,"MEAN_MOTION_DDOT":0},{"OBJECT_NAME":"FLOCK 4G-23","OBJECT_ID":"2025-009AQ","EPOCH":"2026-07-07T04:58:51.138912","CLASSIFICATION_TYPE":"U","MEAN_MOTION":15.34314215,"ECCENTRICITY":0.000278,"INCLINATION":97.3923,"RA_OF_ASC_NODE":269.8813,"ARG_OF_PERICENTER":188.0668,"MEAN_ANOMALY":172.0531,"EPHEMERIS_TYPE":0,"NORAD_CAT_ID":62647,"ELEMENT_SET_NO":999,"REV_AT_EPOCH":8199,"BSTAR":0.00088386,"MEAN_MOTION_DOT":0.00029366,"MEAN_MOTION_DDOT":0},{"OBJECT_NAME":"FLOCK 4G-34","OBJECT_ID":"2025-009AT","EPOCH":"2026-07-07T11:20:50.305344","CLASSIFICATION_TYPE":"U","MEAN_MOTION":15.29672047,"ECCENTRICITY":0.0001624,"INCLINATION":97.3955,"RA_OF_ASC_NODE":269.961,"ARG_OF_PERICENTER":182.2338,"MEAN_ANOMALY":177.8896,"EPHEMERIS_TYPE":0,"NORAD_CAT_ID":62650,"ELEMENT_SET_NO":999,"REV_AT_EPOCH":8201,"BSTAR":0.00023643,"MEAN_MOTION_DOT":0.00006721,"MEAN_MOTION_DDOT":0},{"OBJECT_NAME":"FLOCK 4G-21","OBJECT_ID":"2025-009AU","EPOCH":"2026-07-07T11:19:50.424096","CLASSIFICATION_TYPE":"U","MEAN_MOTION":15.32490105,"ECCENTRICITY":0.0002413,"INCLINATION":97.3986,"RA_OF_ASC_NODE":270.926,"ARG_OF_PERICENTER":213.2925,"MEAN_ANOMALY":146.8165,"EPHEMERIS_TYPE":0,"NORAD_CAT_ID":62651,"ELEMENT_SET_NO":999,"REV_AT_EPOCH":8206,"BSTAR":0.00084029,"MEAN_MOTION_DOT":0.00026346,"MEAN_MOTION_DDOT":0},{"OBJECT_NAME":"FLOCK 4G-31","OBJECT_ID":"2025-009AV","EPOCH":"2026-07-07T04:11:25.878048","CLASSIFICATION_TYPE":"U","MEAN_MOTION":15.29474224,"ECCENTRICITY":0.0001173,"INCLINATION":97.3961,"RA_OF_ASC_NODE":269.6379,"ARG_OF_PERICENTER":172.2918,"MEAN_ANOMALY":187.834,"EPHEMERIS_TYPE":0,"NORAD_CAT_ID":62652,"ELEMENT_SET_NO":999,"REV_AT_EPOCH":8196,"BSTAR":0.00028786,"MEAN_MOTION_DOT":0.00008151,"MEAN_MOTION_DDOT":0},{"OBJECT_NAME":"FLOCK 4G-4","OBJECT_ID":"2025-009BC","EPOCH":"2026-07-06T18:25:40.617408","CLASSIFICATION_TYPE":"U","MEAN_MOTION":15.31738738,"ECCENTRICITY":0.0003928,"INCLINATION":97.3941,"RA_OF_ASC_NODE":269.0166,"ARG_OF_PERICENTER":218.3344,"MEAN_ANOMALY":141.7619,"EPHEMERIS_TYPE":0,"NORAD_CAT_ID":62659,"ELEMENT_SET_NO":999,"REV_AT_EPOCH":13950,"BSTAR":0.0010096,"MEAN_MOTION_DOT":0.0003096,"MEAN_MOTION_DDOT":0},{"OBJECT_NAME":"FLOCK 4G-6","OBJECT_ID":"2025-009BD","EPOCH":"2026-07-07T03:58:51.455712","CLASSIFICATION_TYPE":"U","MEAN_MOTION":15.29876544,"ECCENTRICITY":0.0002086,"INCLINATION":97.3933,"RA_OF_ASC_NODE":269.4788,"ARG_OF_PERICENTER":236.9861,"MEAN_ANOMALY":123.1179,"EPHEMERIS_TYPE":0,"NORAD_CAT_ID":62660,"ELEMENT_SET_NO":999,"REV_AT_EPOCH":13955,"BSTAR":0.00025092,"MEAN_MOTION_DOT":0.00007183,"MEAN_MOTION_DDOT":0},{"OBJECT_NAME":"FLOCK 4G-2","OBJECT_ID":"2025-009BE","EPOCH":"2026-07-06T16:53:05.787744","CLASSIFICATION_TYPE":"U","MEAN_MOTION":15.30211304,"ECCENTRICITY":0.0002953,"INCLINATION":97.4001,"RA_OF_ASC_NODE":269.6493,"ARG_OF_PERICENTER":237.6071,"MEAN_ANOMALY":122.4884,"EPHEMERIS_TYPE":0,"NORAD_CAT_ID":62661,"ELEMENT_SET_NO":999,"REV_AT_EPOCH":13951,"BSTAR":0.0003123,"MEAN_MOTION_DOT":0.00009055,"MEAN_MOTION_DDOT":0},{"OBJECT_NAME":"FLOCK 4G-5","OBJECT_ID":"2025-009BG","EPOCH":"2026-07-06T18:24:34.106688","CLASSIFICATION_TYPE":"U","MEAN_MOTION":15.3080468,"ECCENTRICITY":0.0002687,"INCLINATION":97.402,"RA_OF_ASC_NODE":270.103,"ARG_OF_PERICENTER":212.327,"MEAN_ANOMALY":147.7806,"EPHEMERIS_TYPE":0,"NORAD_CAT_ID":62663,"ELEMENT_SET_NO":999,"REV_AT_EPOCH":8193,"BSTAR":0.00028311,"MEAN_MOTION_DOT":0.00008353,"MEAN_MOTION_DDOT":0},{"OBJECT_NAME":"FLOCK 4G-1","OBJECT_ID":"2025-009BK","EPOCH":"2026-07-07T05:03:36.810144","CLASSIFICATION_TYPE":"U","MEAN_MOTION":15.3007889,"ECCENTRICITY":0.0003232,"INCLINATION":97.4015,"RA_OF_ASC_NODE":270.1338,"ARG_OF_PERICENTER":231.2833,"MEAN_ANOMALY":128.8119,"EPHEMERIS_TYPE":0,"NORAD_CAT_ID":62666,"ELEMENT_SET_NO":999,"REV_AT_EPOCH":8197,"BSTAR":0.00025208,"MEAN_MOTION_DOT":0.00007263,"MEAN_MOTION_DDOT":0},{"OBJECT_NAME":"FLOCK 4G-14","OBJECT_ID":"2025-009BL","EPOCH":"2026-07-06T04:37:46.234272","CLASSIFICATION_TYPE":"U","MEAN_MOTION":15.29610526,"ECCENTRICITY":0.00033031,"INCLINATION":97.4017,"RA_OF_ASC_NODE":268.9222,"ARG_OF_PERICENTER":230.7288,"MEAN_ANOMALY":129.366,"EPHEMERIS_TYPE":0,"NORAD_CAT_ID":62667,"ELEMENT_SET_NO":999,"REV_AT_EPOCH":8180,"BSTAR":0.00039578039,"MEAN_MOTION_DOT":0.00011288,"MEAN_MOTION_DDOT":0},{"OBJECT_NAME":"FLOCK 4G-10","OBJECT_ID":"2025-009BP","EPOCH":"2026-07-07T04:27:16.551072","CLASSIFICATION_TYPE":"U","MEAN_MOTION":15.29723998,"ECCENTRICITY":0.0003006,"INCLINATION":97.3914,"RA_OF_ASC_NODE":269.2176,"ARG_OF_PERICENTER":249.1867,"MEAN_ANOMALY":110.9051,"EPHEMERIS_TYPE":0,"NORAD_CAT_ID":62670,"ELEMENT_SET_NO":999,"REV_AT_EPOCH":13959,"BSTAR":0.00027006,"MEAN_MOTION_DOT":0.00007702,"MEAN_MOTION_DDOT":0},{"OBJECT_NAME":"FLOCK 4G-36","OBJECT_ID":"2025-009BU","EPOCH":"2026-07-06T20:28:12.053856","CLASSIFICATION_TYPE":"U","MEAN_MOTION":15.2969085,"ECCENTRICITY":0.0003546,"INCLINATION":97.4005,"RA_OF_ASC_NODE":269.5012,"ARG_OF_PERICENTER":234.5813,"MEAN_ANOMALY":125.5096,"EPHEMERIS_TYPE":0,"NORAD_CAT_ID":62675,"ELEMENT_SET_NO":999,"REV_AT_EPOCH":8190,"BSTAR":0.00030452,"MEAN_MOTION_DOT":0.00008686,"MEAN_MOTION_DDOT":0},{"OBJECT_NAME":"FLOCK 4G-15","OBJECT_ID":"2025-009BX","EPOCH":"2026-07-06T17:30:30.567744","CLASSIFICATION_TYPE":"U","MEAN_MOTION":15.2977868,"ECCENTRICITY":0.0003767,"INCLINATION":97.4009,"RA_OF_ASC_NODE":269.5196,"ARG_OF_PERICENTER":230.7386,"MEAN_ANOMALY":129.352,"EPHEMERIS_TYPE":0,"NORAD_CAT_ID":62678,"ELEMENT_SET_NO":999,"REV_AT_EPOCH":13953,"BSTAR":0.00028467,"MEAN_MOTION_DOT":0.00008137,"MEAN_MOTION_DDOT":0},{"OBJECT_NAME":"FLOCK 4G-30","OBJECT_ID":"2025-009BY","EPOCH":"2026-07-06T16:39:49.574592","CLASSIFICATION_TYPE":"U","MEAN_MOTION":15.33494913,"ECCENTRICITY":0.0003478,"INCLINATION":97.3911,"RA_OF_ASC_NODE":268.9685,"ARG_OF_PERICENTER":225.6107,"MEAN_ANOMALY":134.4851,"EPHEMERIS_TYPE":0,"NORAD_CAT_ID":62679,"ELEMENT_SET_NO":999,"REV_AT_EPOCH":13953,"BSTAR":0.0010833,"MEAN_MOTION_DOT":0.00035122,"MEAN_MOTION_DDOT":0},{"OBJECT_NAME":"FLOCK 4G-18","OBJECT_ID":"2025-009BZ","EPOCH":"2026-07-06T16:46:43.992192","CLASSIFICATION_TYPE":"U","MEAN_MOTION":15.31781764,"ECCENTRICITY":0.0005281,"INCLINATION":97.4003,"RA_OF_ASC_NODE":269.3804,"ARG_OF_PERICENTER":241.417,"MEAN_ANOMALY":118.6541,"EPHEMERIS_TYPE":0,"NORAD_CAT_ID":62680,"ELEMENT_SET_NO":999,"REV_AT_EPOCH":13952,"BSTAR":0.0010709,"MEAN_MOTION_DOT":0.00032903,"MEAN_MOTION_DDOT":0}]}
